SILVERSAT               
1 66909U 98067XV  26033.61933034  .00106907  00000+0  12156-2 0  9992
2 66909  51.6261 242.9747 0002946 183.6146 176.4827 15.61466650  9697
1998-067XW              
1 66910U 98067XW  26034.27016188  .00088159  00000+0  10459-2 0  9991
2 66910  51.6249 239.8162 0001168 179.9937 180.1057 15.60452206  9791
1998-067XX              
1 66911U 98067XX  26033.97768564  .00107333  00000+0  11667-2 0  9998
2 66911  51.6238 240.8615 0002356 210.9723 149.1132 15.62627778  9748
1998-067XY              
1 66912U 98067XY  26033.93848943  .00062899  00000+0  82853-3 0  9998
2 66912  51.6268 242.1063 0001995 139.3908 220.7233 15.57830370  9725
