CCSDS_OMM_VERS = 2.0
CREATION_DATE  = 
ORIGINATOR     = 

OBJECT_NAME    = SILVERSAT
OBJECT_ID      = 1998-067XV
CENTER_NAME    = EARTH
REF_FRAME      = TEME
TIME_SYSTEM    = UTC
MEAN_ELEMENT_THEORY = SGP/SGP4

EPOCH          = 2026-02-02T14:51:50.141376
MEAN_MOTION    = 15.61466650
ECCENTRICITY   = .0002946
INCLINATION    = 51.6261
RA_OF_ASC_NODE = 242.9747
ARG_OF_PERICENTER = 183.6146
MEAN_ANOMALY   = 176.4827

EPHEMERIS_TYPE = 0
CLASSIFICATION_TYPE = U
NORAD_CAT_ID   = 66909
ELEMENT_SET_NO = 999
REV_AT_EPOCH   = 969
BSTAR          = .12155553E-2
MEAN_MOTION_DOT = .106907E-2
MEAN_MOTION_DDOT = 0

CCSDS_OMM_VERS = 2.0
CREATION_DATE  = 
ORIGINATOR     = 

OBJECT_NAME    = 1998-067XW
OBJECT_ID      = 1998-067XW
CENTER_NAME    = EARTH
REF_FRAME      = TEME
TIME_SYSTEM    = UTC
MEAN_ELEMENT_THEORY = SGP/SGP4

EPOCH          = 2026-02-03T06:29:01.986432
MEAN_MOTION    = 15.60452206
ECCENTRICITY   = .0001168
INCLINATION    = 51.6249
RA_OF_ASC_NODE = 239.8162
ARG_OF_PERICENTER = 179.9937
MEAN_ANOMALY   = 180.1057

EPHEMERIS_TYPE = 0
CLASSIFICATION_TYPE = U
NORAD_CAT_ID   = 66910
ELEMENT_SET_NO = 999
REV_AT_EPOCH   = 979
BSTAR          = .10459E-2
MEAN_MOTION_DOT = .88159E-3
MEAN_MOTION_DDOT = 0

CCSDS_OMM_VERS = 2.0
CREATION_DATE  = 
ORIGINATOR     = 

OBJECT_NAME    = 1998-067XX
OBJECT_ID      = 1998-067XX
CENTER_NAME    = EARTH
REF_FRAME      = TEME
TIME_SYSTEM    = UTC
MEAN_ELEMENT_THEORY = SGP/SGP4

EPOCH          = 2026-02-02T23:27:52.039296
MEAN_MOTION    = 15.62627778
ECCENTRICITY   = .00023563
INCLINATION    = 51.6238
RA_OF_ASC_NODE = 240.8615
ARG_OF_PERICENTER = 210.9723
MEAN_ANOMALY   = 149.1132

EPHEMERIS_TYPE = 0
CLASSIFICATION_TYPE = U
NORAD_CAT_ID   = 66911
ELEMENT_SET_NO = 999
REV_AT_EPOCH   = 974
BSTAR          = .11666529E-2
MEAN_MOTION_DOT = .107333E-2
MEAN_MOTION_DDOT = 0

CCSDS_OMM_VERS = 2.0
CREATION_DATE  = 
ORIGINATOR     = 

OBJECT_NAME    = 1998-067XY
OBJECT_ID      = 1998-067XY
CENTER_NAME    = EARTH
REF_FRAME      = TEME
TIME_SYSTEM    = UTC
MEAN_ELEMENT_THEORY = SGP/SGP4

EPOCH          = 2026-02-02T22:31:25.486752
MEAN_MOTION    = 15.57830370
ECCENTRICITY   = .00019959
INCLINATION    = 51.6268
RA_OF_ASC_NODE = 242.1063
ARG_OF_PERICENTER = 139.3908
MEAN_ANOMALY   = 220.7233

EPHEMERIS_TYPE = 0
CLASSIFICATION_TYPE = U
NORAD_CAT_ID   = 66912
ELEMENT_SET_NO = 999
REV_AT_EPOCH   = 972
BSTAR          = .82853165E-3
MEAN_MOTION_DOT = .62899E-3
MEAN_MOTION_DDOT = 0

